[{"OBJECT_NAME":"WEILAI 1R","OBJECT_ID":"2019-093F","EPOCH":"2026-03-09T22:33:48.244608","MEAN_MOTION":14.997592,"ECCENTRICITY":0.00116762,"INCLINATION":97.7939,"RA_OF_ASC_NODE":158.7373,"ARG_OF_PERICENTER":23.5076,"MEAN_ANOMALY":336.6679,"EPHEMERIS_TYPE":0,"CLASSIFICATION_TYPE":"U","NORAD_CAT_ID":44884,"ELEMENT_SET_NO":999,"REV_AT_EPOCH":33754,"BSTAR":0.00050142794,"MEAN_MOTION_DOT":6.146e-5,"MEAN_MOTION_DDOT":0},{"OBJECT_NAME":"STARLINK-35768","OBJECT_ID":"2025-280M","EPOCH":"2026-03-09T22:51:15.171552","MEAN_MOTION":14.98340428,"ECCENTRICITY":0.00025282,"INCLINATION":70.0022,"RA_OF_ASC_NODE":333.8535,"ARG_OF_PERICENTER":242.7162,"MEAN_ANOMALY":117.374,"EPHEMERIS_TYPE":0,"CLASSIFICATION_TYPE":"U","NORAD_CAT_ID":66832,"ELEMENT_SET_NO":999,"REV_AT_EPOCH":1611,"BSTAR":0.00028168283,"MEAN_MOTION_DOT":3.27e-5,"MEAN_MOTION_DDOT":0}]
